COMMENT,ORIGINATOR,NORAD_CAT_ID,OBJECT_NAME,OBJECT_TYPE,CLASSIFICATION_TYPE,INTLDES,EPOCH,EPOCH_MICROSECONDS,MEAN_MOTION,ECCENTRICITY,INCLINATION,RA_OF_ASC_NODE,ARG_OF_PERICENTER,MEAN_ANOMALY,EPHEMERIS_TYPE,ELEMENT_SET_NO,REV_AT_EPOCH,BSTAR,MEAN_MOTION_DOT,MEAN_MOTION_DDOT,FILE,TLE_LINE0,TLE_LINE1,TLE_LINE2,OBJECT_ID,OBJECT_NUMBER,SEMIMAJOR_AXIS,PERIOD,APOGEE,PERIGEE,DECAYED
"GENERATED VIA SPACETRACK.ORG API","18 SPCS","48890","SPACEBEE-104","PAYLOAD","U","21059M","2023-11-24 08:20:52","639008","15.51277843","0.0002193","97.6058","111.4232","46.2606","313.8827","0","999","13404","0.0016899","0.00100103","0","4105481","0 SPACEBEE-104","1 48890U 21059M   23328.34783147  .00100103  00000-0  16899-2 0  9991","2 48890  97.6058 111.4232 0002193  46.2606 313.8827 15.51277843134046","2021-059M","48890","6791.131","92.827","414.485","411.507","0"
"GENERATED VIA SPACETRACK.ORG API","18 SPCS","48890","SPACEBEE-104","PAYLOAD","U","21059M","2023-11-24 22:16:49","899648","15.51402908","0.0002317","97.6056","112.0374","42.0973","318.0456","0","999","13413","0.0019335","0.00115279","0","4105877","0 SPACEBEE-104","1 48890U 21059M   23328.92835532  .00115279  00000-0  19335-2 0  9999","2 48890  97.6056 112.0374 0002317  42.0973 318.0456 15.51402908134134","2021-059M","48890","6790.766","92.819","414.205","411.058","0"
"GENERATED VIA SPACETRACK.ORG API","18 SPCS","48890","SPACEBEE-104","PAYLOAD","U","21059M","2023-11-24 22:16:49","899648","15.51402908","0.0002317","97.6056","112.0374","42.0973","318.0456","0","999","13413","0.0019335","0.00115279","0","4106343","0 SPACEBEE-104","1 48890U 21059M   23328.92835532  .00115279  00000-0  19335-2 0  9999","2 48890  97.6056 112.0374 0002317  42.0973 318.0456 15.51402908134134","2021-059M","48890","6790.766","92.819","414.205","411.058","0"
"GENERATED VIA SPACETRACK.ORG API","18 SPCS","48890","SPACEBEE-104","PAYLOAD","U","21059M","2023-11-25 09:06:58","3200","15.51519714","0.0002374","97.6055","112.5142","37.3392","322.8024","0","999","13420","0.0021263","0.00127509","0","4106483","0 SPACEBEE-104","1 48890U 21059M   23329.37983800  .00127509  00000-0  21263-2 0  9993","2 48890  97.6055 112.5142 0002374  37.3392 322.8024 15.51519714134202","2021-059M","48890","6790.425","92.812","413.902","410.678","0"
"GENERATED VIA SPACETRACK.ORG API","18 SPCS","48890","SPACEBEE-104","PAYLOAD","U","21059M","2023-11-25 21:29:54","825216","15.51705051","0.0002467","97.6055","113.0606","32.4356","327.7047","0","999","13428","0.0038992","0.00238805","0","4106487","0 SPACEBEE-104","1 48890U 21059M   23329.89577344  .00238805  00000-0  38992-2 0  9991","2 48890  97.6055 113.0606 0002467  32.4356 327.7047 15.51705051134280","2021-059M","48890","6789.885","92.801","413.425","410.075","0"
"GENERATED VIA SPACETRACK.ORG API","18 SPCS","48890","SPACEBEE-104","PAYLOAD","U","21059M","2023-11-25 23:02:46","473504","15.51733287","0.000244","97.6054","113.1285","32.9609","327.1794","0","999","13429","0.0039012","0.00239179","0","4106928","0 SPACEBEE-104","1 48890U 21059M   23329.96026011  .00239179  00000-0  39012-2 0  9998","2 48890  97.6054 113.1285 0002440  32.9609 327.1794 15.51733287134296","2021-059M","48890","6789.802","92.799","413.324","410.011","0"
"GENERATED VIA SPACETRACK.ORG API","18 SPCS","48890","SPACEBEE-104","PAYLOAD","U","21059M","2023-11-26 05:14:12","655392","15.51774657","0.000235","97.6056","113.4011","33.1126","327.0272","0","999","13433","0.0018433","0.00111303","0","4107578","0 SPACEBEE-104","1 48890U 21059M   23330.21820203  .00111303  00000-0  18433-2 0  9995","2 48890  97.6056 113.4011 0002350  33.1126 327.0272 15.51774657134336","2021-059M","48890","6789.682","92.797","413.142","409.951","0"
"GENERATED VIA SPACETRACK.ORG API","18 SPCS","48890","SPACEBEE-104","PAYLOAD","U","21059M","2023-11-26 05:14:12","655392","15.51774657","0.000235","97.6056","113.4011","33.1126","327.0272","0","999","13433","0.0018433","0.00111303","0","4107973","0 SPACEBEE-104","1 48890U 21059M   23330.21820203  .00111303  00000-0  18433-2 0  9995","2 48890  97.6056 113.4011 0002350  33.1126 327.0272 15.51774657134336","2021-059M","48890","6789.682","92.797","413.142","409.951","0"
"GENERATED VIA SPACETRACK.ORG API","18 SPCS","48890","SPACEBEE-104","PAYLOAD","U","21059M","2023-11-26 22:15:34","872480","15.51948271","0.0002617","97.6057","114.1521","29.1071","331.0326","0","999","13444","0.0014595","0.000884","0","4108592","0 SPACEBEE-104","1 48890U 21059M   23330.92748695  .00088400  00000-0  14595-2 0  9993","2 48890  97.6057 114.1521 0002617  29.1071 331.0326 15.51948271134443","2021-059M","48890","6789.175","92.787","412.817","409.263","0"
"GENERATED VIA SPACETRACK.ORG API","18 SPCS","48890","SPACEBEE-104","PAYLOAD","U","21059M","2023-11-26 22:15:34","872480","15.51948271","0.0002617","97.6057","114.1521","29.1071","331.0326","0","999","13444","0.0014595","0.000884","0","4108897","0 SPACEBEE-104","1 48890U 21059M   23330.92748695  .00088400  00000-0  14595-2 0  9993","2 48890  97.6057 114.1521 0002617  29.1071 331.0326 15.51948271134443","2021-059M","48890","6789.175","92.787","412.817","409.263","0"
"GENERATED VIA SPACETRACK.ORG API","18 SPCS","48890","SPACEBEE-104","PAYLOAD","U","21059M","2023-11-27 09:05:29","141664","15.52058005","0.0002707","97.6059","114.6294","27.7651","332.3745","0","999","13451","0.0014766","0.00089805","0","4109381","0 SPACEBEE-104","1 48890U 21059M   23331.37880951  .00089805  00000-0  14766-2 0  9995","2 48890  97.6059 114.6294 0002707  27.7651 332.3745 15.52058005134510","2021-059M","48890","6788.855","92.780","412.558","408.882","0"
"GENERATED VIA SPACETRACK.ORG API","18 SPCS","48890","SPACEBEE-104","PAYLOAD","U","21059M","2023-11-27 09:05:29","141664","15.52058005","0.0002707","97.6059","114.6294","27.7651","332.3745","0","999","13451","0.0014766","0.00089805","0","4109692","0 SPACEBEE-104","1 48890U 21059M   23331.37880951  .00089805  00000-0  14766-2 0  9995","2 48890  97.6059 114.6294 0002707  27.7651 332.3745 15.52058005134510","2021-059M","48890","6788.855","92.780","412.558","408.882","0"
"GENERATED VIA SPACETRACK.ORG API","18 SPCS","48890","SPACEBEE-104","PAYLOAD","U","21059M","2023-11-27 15:16:50","405664","15.52120483","0.0002831","97.6057","114.903","26.7027","333.437","0","999","13455","0.0018431","0.00112696","0","4109995","0 SPACEBEE-104","1 48890U 21059M   23331.63669451  .00112696  00000-0  18431-2 0  9992","2 48890  97.6057 114.9030 0002831  26.7027 333.4370 15.52120483134553","2021-059M","48890","6788.673","92.776","412.460","408.616","0"
"GENERATED VIA SPACETRACK.ORG API","18 SPCS","48890","SPACEBEE-104","PAYLOAD","U","21059M","2023-11-27 21:28:10","767648","15.52189306","0.0002979","97.6059","115.1761","23.442","336.6967","0","999","13459","0.0019968","0.00122557","0","4110225","0 SPACEBEE-104","1 48890U 21059M   23331.89456907  .00122557  00000-0  19968-2 0  9993","2 48890  97.6059 115.1761 0002979  23.4420 336.6967 15.52189306134593","2021-059M","48890","6788.472","92.772","412.360","408.315","0"
"GENERATED VIA SPACETRACK.ORG API","18 SPCS","48890","SPACEBEE-104","PAYLOAD","U","21059M","2023-11-27 23:01:00","678432","15.52207932","0.0002985","97.606","115.2442","22.823","337.3154","0","999","13460","0.0020259","0.00124458","0","4110396","0 SPACEBEE-104","1 48890U 21059M   23331.95903563  .00124458  00000-0  20259-2 0  9992","2 48890  97.6060 115.2442 0002985  22.8230 337.3154 15.52207932134605","2021-059M","48890","6788.418","92.771","412.309","408.257","0"
"GENERATED VIA SPACETRACK.ORG API","18 SPCS","48890","SPACEBEE-104","PAYLOAD","U","21059M","2023-11-28 08:17:59","52768","15.52308309","0.0003027","97.6062","115.6536","21.6646","338.4733","0","999","13466","0.0019543","0.00120426","0","4111489","0 SPACEBEE-104","1 48890U 21059M   23332.34582237  .00120426  00000-0  19543-2 0  9992","2 48890  97.6062 115.6536 0003027  21.6646 338.4733 15.52308309134662","2021-059M","48890","6788.125","92.765","412.045","407.936","0"
"GENERATED VIA SPACETRACK.ORG API","18 SPCS","48890","SPACEBEE-104","PAYLOAD","U","21059M","2023-11-29 09:03:04","593600","15.52563931","0.0003112","97.6063","116.7461","17.4085","342.7273","0","999","13482","0.001873","0.00116415","0","4112976","0 SPACEBEE-104","1 48890U 21059M   23333.37713650  .00116415  00000-0  18730-2 0  9991","2 48890  97.6063 116.7461 0003112  17.4085 342.7273 15.52563931134826","2021-059M","48890","6787.380","92.750","411.357","407.133","0"
"GENERATED VIA SPACETRACK.ORG API","18 SPCS","48890","SPACEBEE-104","PAYLOAD","U","21059M","2023-11-29 09:03:04","593600","15.52563931","0.0003112","97.6063","116.7461","17.4085","342.7273","0","999","13482","0.001873","0.00116415","0","4113103","0 SPACEBEE-104","1 48890U 21059M   23333.37713650  .00116415  00000-0  18730-2 0  9991","2 48890  97.6063 116.7461 0003112  17.4085 342.7273 15.52563931134826","2021-059M","48890","6787.380","92.750","411.357","407.133","0"
"GENERATED VIA SPACETRACK.ORG API","18 SPCS","48890","SPACEBEE-104","PAYLOAD","U","21059M","2023-11-29 22:58:19","792992","15.5271619","0.0003287","97.6064","117.361","14.5472","345.5874","0","999","13491","0.0021311","0.00133485","0","4113883","0 SPACEBEE-104","1 48890U 21059M   23333.95717353  .00133485  00000-0  21311-2 0  9994","2 48890  97.6064 117.3610 0003287  14.5472 345.5874 15.52716190134916","2021-059M","48890","6786.937","92.741","411.032","406.571","0"
"GENERATED VIA SPACETRACK.ORG API","18 SPCS","48890","SPACEBEE-104","PAYLOAD","U","21059M","2023-11-30 09:47:54","879648","15.52831287","0.0003353","97.6066","117.8389","13.2142","346.9198","0","999","13498","0.0018845","0.0011829","0","4115041","0 SPACEBEE-104","1 48890U 21059M   23334.40827407  .00118290  00000-0  18845-2 0  9992","2 48890  97.6066 117.8389 0003353  13.2142 346.9198 15.52831287134986","2021-059M","48890","6786.601","92.734","410.742","406.191","0"
